STARLINK-35583          
1 66611U 25270Z   25344.58336806 -.00163411  00000+0 -28296-2 0  9999
2 66611  42.9998 205.2377 0001856 251.6419   8.2564 15.50661458  4164
STARLINK-36039          
1 66612U 25270AA  25344.58336806 -.00174737  00000+0 -30300-2 0  9992
2 66612  42.9997 205.2318 0001865 251.6652  10.1510 15.50665244  4056
STARLINK-36037          
1 66613U 25270AB  25344.58336806 -.00214055  00000+0 -37289-2 0  9994
2 66613  42.9998 205.2279 0001871 252.0482  11.6808 15.50685792  4053
STARLINK-36040          
1 66614U 25270AC  25344.58336806 -.00185039  00000+0 -32129-2 0  9992
2 66614  42.9997 205.2175 0001732 252.6595  14.9065 15.50668551  3891
STARLINK-35988          
1 66615U 25270AD  25344.58336806 -.00211731  00000+0 -36917-2 0  9991
2 66615  42.9998 205.2222 0001582 235.4884  30.1624 15.50653355  3896
STARLINK-35391          
1 66616U 25270AE  25344.58336806 -.00201773  00000+0 -35104-2 0  9994
2 66616  42.9997 205.2128 0001798 249.0241  20.4548 15.50676632  4169
STARLINK-35940          
1 66617U 25271A   25344.58336806 -.01970465  00000+0 -27913-1 0  9996
2 66617  53.1600 197.6231 0001169 117.3748 136.2640 15.59333830  3892
STARLINK-35970          
1 66618U 25271B   25344.58336806 -.01979528  00000+0 -28061-1 0  9991
2 66618  53.1602 197.5105 0000858 100.4472 206.5206 15.59335948  3896
STARLINK-35951          
1 66619U 25271C   25344.58336806 -.01983663  00000+0 -28120-1 0  9993
2 66619  53.1601 197.6057 0001069 113.7866 147.5200 15.59340988  3890
STARLINK-35936          
1 66620U 25271D   25344.58336806 -.01973263  00000+0 -27959-1 0  9999
2 66620  53.1602 197.6190 0001079 115.0220 140.5360 15.59334085  3892
STARLINK-35847          
1 66621U 25271E   25344.58336806 -.01952814  00000+0 -27654-1 0  9991
2 66621  53.1600 197.5030 0001145 117.2380 193.2847 15.59310426  3896
STARLINK-35950          
1 66622U 25271F   25344.58336806 -.01974720  00000+0 -27983-1 0  9997
2 66622  53.1603 197.6030 0001054 114.9694 148.2568 15.59334518  3890
