CCSDS_OMM_VERS = 2.0
CREATION_DATE  = 
ORIGINATOR     = 

OBJECT_NAME    = STARLINK-35583
OBJECT_ID      = 2025-270Z
CENTER_NAME    = EARTH
REF_FRAME      = TEME
TIME_SYSTEM    = UTC
MEAN_ELEMENT_THEORY = SGP/SGP4

EPOCH          = 2025-12-10T14:00:03.000384
MEAN_MOTION    = 15.50661458
ECCENTRICITY   = .00018566
INCLINATION    = 42.9998
RA_OF_ASC_NODE = 205.2377
ARG_OF_PERICENTER = 251.6419
MEAN_ANOMALY   = 8.2564

EPHEMERIS_TYPE = 0
CLASSIFICATION_TYPE = U
NORAD_CAT_ID   = 66611
ELEMENT_SET_NO = 999
REV_AT_EPOCH   = 416
BSTAR          = -.28295954E-2
MEAN_MOTION_DOT = -.163411E-2
MEAN_MOTION_DDOT = 0

CCSDS_OMM_VERS = 2.0
CREATION_DATE  = 
ORIGINATOR     = 

OBJECT_NAME    = STARLINK-36039
OBJECT_ID      = 2025-270AA
CENTER_NAME    = EARTH
REF_FRAME      = TEME
TIME_SYSTEM    = UTC
MEAN_ELEMENT_THEORY = SGP/SGP4

EPOCH          = 2025-12-10T14:00:03.000384
MEAN_MOTION    = 15.50665244
ECCENTRICITY   = .00018657
INCLINATION    = 42.9997
RA_OF_ASC_NODE = 205.2318
ARG_OF_PERICENTER = 251.6652
MEAN_ANOMALY   = 10.1510

EPHEMERIS_TYPE = 0
CLASSIFICATION_TYPE = U
NORAD_CAT_ID   = 66612
ELEMENT_SET_NO = 999
REV_AT_EPOCH   = 405
BSTAR          = -.30300388E-2
MEAN_MOTION_DOT = -.174737E-2
MEAN_MOTION_DDOT = 0

CCSDS_OMM_VERS = 2.0
CREATION_DATE  = 
ORIGINATOR     = 

OBJECT_NAME    = STARLINK-36037
OBJECT_ID      = 2025-270AB
CENTER_NAME    = EARTH
REF_FRAME      = TEME
TIME_SYSTEM    = UTC
MEAN_ELEMENT_THEORY = SGP/SGP4

EPOCH          = 2025-12-10T14:00:03.000384
MEAN_MOTION    = 15.50685792
ECCENTRICITY   = .00018711
INCLINATION    = 42.9998
RA_OF_ASC_NODE = 205.2279
ARG_OF_PERICENTER = 252.0482
MEAN_ANOMALY   = 11.6808

EPHEMERIS_TYPE = 0
CLASSIFICATION_TYPE = U
NORAD_CAT_ID   = 66613
ELEMENT_SET_NO = 999
REV_AT_EPOCH   = 405
BSTAR          = -.372894E-2
MEAN_MOTION_DOT = -.214055E-2
MEAN_MOTION_DDOT = 0

CCSDS_OMM_VERS = 2.0
CREATION_DATE  = 
ORIGINATOR     = 

OBJECT_NAME    = STARLINK-36040
OBJECT_ID      = 2025-270AC
CENTER_NAME    = EARTH
REF_FRAME      = TEME
TIME_SYSTEM    = UTC
MEAN_ELEMENT_THEORY = SGP/SGP4

EPOCH          = 2025-12-10T14:00:03.000384
MEAN_MOTION    = 15.50668551
ECCENTRICITY   = .0001732
INCLINATION    = 42.9997
RA_OF_ASC_NODE = 205.2175
ARG_OF_PERICENTER = 252.6595
MEAN_ANOMALY   = 14.9065

EPHEMERIS_TYPE = 0
CLASSIFICATION_TYPE = U
NORAD_CAT_ID   = 66614
ELEMENT_SET_NO = 999
REV_AT_EPOCH   = 389
BSTAR          = -.32129084E-2
MEAN_MOTION_DOT = -.185039E-2
MEAN_MOTION_DDOT = 0

CCSDS_OMM_VERS = 2.0
CREATION_DATE  = 
ORIGINATOR     = 

OBJECT_NAME    = STARLINK-35988
OBJECT_ID      = 2025-270AD
CENTER_NAME    = EARTH
REF_FRAME      = TEME
TIME_SYSTEM    = UTC
MEAN_ELEMENT_THEORY = SGP/SGP4

EPOCH          = 2025-12-10T14:00:03.000384
MEAN_MOTION    = 15.50653355
ECCENTRICITY   = .00015824
INCLINATION    = 42.9998
RA_OF_ASC_NODE = 205.2222
ARG_OF_PERICENTER = 235.4884
MEAN_ANOMALY   = 30.1624

EPHEMERIS_TYPE = 0
CLASSIFICATION_TYPE = U
NORAD_CAT_ID   = 66615
ELEMENT_SET_NO = 999
REV_AT_EPOCH   = 389
BSTAR          = -.36917402E-2
MEAN_MOTION_DOT = -.211731E-2
MEAN_MOTION_DDOT = 0

CCSDS_OMM_VERS = 2.0
CREATION_DATE  = 
ORIGINATOR     = 

OBJECT_NAME    = STARLINK-35391
OBJECT_ID      = 2025-270AE
CENTER_NAME    = EARTH
REF_FRAME      = TEME
TIME_SYSTEM    = UTC
MEAN_ELEMENT_THEORY = SGP/SGP4

EPOCH          = 2025-12-10T14:00:03.000384
MEAN_MOTION    = 15.50676632
ECCENTRICITY   = .00017987
INCLINATION    = 42.9997
RA_OF_ASC_NODE = 205.2128
ARG_OF_PERICENTER = 249.0241
MEAN_ANOMALY   = 20.4548

EPHEMERIS_TYPE = 0
CLASSIFICATION_TYPE = U
NORAD_CAT_ID   = 66616
ELEMENT_SET_NO = 999
REV_AT_EPOCH   = 416
BSTAR          = -.35103687E-2
MEAN_MOTION_DOT = -.201773E-2
MEAN_MOTION_DDOT = 0

CCSDS_OMM_VERS = 2.0
CREATION_DATE  = 
ORIGINATOR     = 

OBJECT_NAME    = STARLINK-35940
OBJECT_ID      = 2025-271A
CENTER_NAME    = EARTH
REF_FRAME      = TEME
TIME_SYSTEM    = UTC
MEAN_ELEMENT_THEORY = SGP/SGP4

EPOCH          = 2025-12-10T14:00:03.000384
MEAN_MOTION    = 15.59333830
ECCENTRICITY   = .00011695
INCLINATION    = 53.1600
RA_OF_ASC_NODE = 197.6231
ARG_OF_PERICENTER = 117.3748
MEAN_ANOMALY   = 136.2640

EPHEMERIS_TYPE = 0
CLASSIFICATION_TYPE = U
NORAD_CAT_ID   = 66617
ELEMENT_SET_NO = 999
REV_AT_EPOCH   = 389
BSTAR          = -.27913359E-1
MEAN_MOTION_DOT = -.1970465E-1
MEAN_MOTION_DDOT = 0

CCSDS_OMM_VERS = 2.0
CREATION_DATE  = 
ORIGINATOR     = 

OBJECT_NAME    = STARLINK-35970
OBJECT_ID      = 2025-271B
CENTER_NAME    = EARTH
REF_FRAME      = TEME
TIME_SYSTEM    = UTC
MEAN_ELEMENT_THEORY = SGP/SGP4

EPOCH          = 2025-12-10T14:00:03.000384
MEAN_MOTION    = 15.59335948
ECCENTRICITY   = .00008582
INCLINATION    = 53.1602
RA_OF_ASC_NODE = 197.5105
ARG_OF_PERICENTER = 100.4472
MEAN_ANOMALY   = 206.5206

EPHEMERIS_TYPE = 0
CLASSIFICATION_TYPE = U
NORAD_CAT_ID   = 66618
ELEMENT_SET_NO = 999
REV_AT_EPOCH   = 389
BSTAR          = -.28060877E-1
MEAN_MOTION_DOT = -.1979528E-1
MEAN_MOTION_DDOT = 0

CCSDS_OMM_VERS = 2.0
CREATION_DATE  = 
ORIGINATOR     = 

OBJECT_NAME    = STARLINK-35951
OBJECT_ID      = 2025-271C
CENTER_NAME    = EARTH
REF_FRAME      = TEME
TIME_SYSTEM    = UTC
MEAN_ELEMENT_THEORY = SGP/SGP4

EPOCH          = 2025-12-10T14:00:03.000384
MEAN_MOTION    = 15.59340988
ECCENTRICITY   = .00010692
INCLINATION    = 53.1601
RA_OF_ASC_NODE = 197.6057
ARG_OF_PERICENTER = 113.7866
MEAN_ANOMALY   = 147.5200

EPHEMERIS_TYPE = 0
CLASSIFICATION_TYPE = U
NORAD_CAT_ID   = 66619
ELEMENT_SET_NO = 999
REV_AT_EPOCH   = 389
BSTAR          = -.28119962E-1
MEAN_MOTION_DOT = -.1983663E-1
MEAN_MOTION_DDOT = 0

CCSDS_OMM_VERS = 2.0
CREATION_DATE  = 
ORIGINATOR     = 

OBJECT_NAME    = STARLINK-35936
OBJECT_ID      = 2025-271D
CENTER_NAME    = EARTH
REF_FRAME      = TEME
TIME_SYSTEM    = UTC
MEAN_ELEMENT_THEORY = SGP/SGP4

EPOCH          = 2025-12-10T14:00:03.000384
MEAN_MOTION    = 15.59334085
ECCENTRICITY   = .00010794
INCLINATION    = 53.1602
RA_OF_ASC_NODE = 197.6190
ARG_OF_PERICENTER = 115.0220
MEAN_ANOMALY   = 140.5360

EPHEMERIS_TYPE = 0
CLASSIFICATION_TYPE = U
NORAD_CAT_ID   = 66620
ELEMENT_SET_NO = 999
REV_AT_EPOCH   = 389
BSTAR          = -.27959258E-1
MEAN_MOTION_DOT = -.1973263E-1
MEAN_MOTION_DDOT = 0

CCSDS_OMM_VERS = 2.0
CREATION_DATE  = 
ORIGINATOR     = 

OBJECT_NAME    = STARLINK-35847
OBJECT_ID      = 2025-271E
CENTER_NAME    = EARTH
REF_FRAME      = TEME
TIME_SYSTEM    = UTC
MEAN_ELEMENT_THEORY = SGP/SGP4

EPOCH          = 2025-12-10T14:00:03.000384
MEAN_MOTION    = 15.59310426
ECCENTRICITY   = .00011452
INCLINATION    = 53.1600
RA_OF_ASC_NODE = 197.5030
ARG_OF_PERICENTER = 117.2380
MEAN_ANOMALY   = 193.2847

EPHEMERIS_TYPE = 0
CLASSIFICATION_TYPE = U
NORAD_CAT_ID   = 66621
ELEMENT_SET_NO = 999
REV_AT_EPOCH   = 389
BSTAR          = -.27654022E-1
MEAN_MOTION_DOT = -.1952814E-1
MEAN_MOTION_DDOT = 0

CCSDS_OMM_VERS = 2.0
CREATION_DATE  = 
ORIGINATOR     = 

OBJECT_NAME    = STARLINK-35950
OBJECT_ID      = 2025-271F
CENTER_NAME    = EARTH
REF_FRAME      = TEME
TIME_SYSTEM    = UTC
MEAN_ELEMENT_THEORY = SGP/SGP4

EPOCH          = 2025-12-10T14:00:03.000384
MEAN_MOTION    = 15.59334518
ECCENTRICITY   = .00010546
INCLINATION    = 53.1603
RA_OF_ASC_NODE = 197.6030
ARG_OF_PERICENTER = 114.9694
MEAN_ANOMALY   = 148.2568

EPHEMERIS_TYPE = 0
CLASSIFICATION_TYPE = U
NORAD_CAT_ID   = 66622
ELEMENT_SET_NO = 999
REV_AT_EPOCH   = 389
BSTAR          = -.27982595E-1
MEAN_MOTION_DOT = -.197472E-1
MEAN_MOTION_DDOT = 0

